ESEO                    
1 43792U 18099AL  26068.65529582  .00002831  00000+0  20935-3 0  9991
2 43792  97.4113 110.2601 0011063 317.6000  42.4371 15.03914518396849
STARLINK-4626           
1 53685U 22105AP  26068.65818019 -.00000122  00000+0 -49788-5 0  9994
2 53685  97.6025 310.1773 0002273  61.7447 298.4007 15.01262010193239
